EUTELSAT 139 WEST A     
1 28187U 04008A   26022.26726384 -.00000056  00000+0  00000+0 0  9998
2 28187   5.4577  73.7878 0003523 147.6361 234.9551  1.00841614 79894
EUTELSAT 174A           
1 28924U 05052A   26022.39714648  .00000022  00000+0  00000+0 0  9993
2 28924   3.8475  78.3658 0006354 224.8569 135.4698  1.00269937 50867
EUTELSAT 33F            
1 29270U 06032A   26022.29782594  .00000170  00000+0  00000+0 0  9995
2 29270   1.2835  84.0025 0003495 217.6258 320.3174  1.00269074 45842
EUTELSAT HOTBIRD 13C    
1 33459U 08065A   26022.42401332 -.00000269  00000+0  00000+0 0  9990
2 33459   2.5743  80.9704 0003526 228.7241 274.4047  1.00273175 45886
EUTELSAT 36B            
1 36101U 09065A   26022.44394677  .00000127  00000+0  00000+0 0  9995
2 36101   0.1219  70.2140 0005863 234.5393  27.3345  1.00271228 59248
EUTELSAT KA-SAT 9A      
1 37258U 10069A   26022.36438631  .00000076  00000+0  00000+0 0  9998
2 37258   0.0515 341.4109 0002135 184.6780  95.7797  1.00269997 42547
EUTELSAT 7 WEST A       
1 37816U 11051A   26022.36117963 -.00000046  00000+0  00000+0 0  9990
2 37816   0.0729 327.6156 0004144 269.6721   7.1389  1.00272173 52414
EUTELSAT 16A            
1 37836U 11057A   26022.36568633  .00000118  00000+0  00000+0 0  9991
2 37836   0.0546  10.2154 0005248 292.1675 326.9462  1.00271307  5860
